NORAD_CAT_ID,OBJECT_NAME,OBJECT_TYPE,EPOCH,MEAN_MOTION,ECCENTRICITY,INCLINATION,RA_OF_ASC_NODE,ARG_OF_PERICENTER,MEAN_ANOMALY,BSTAR,MEAN_MOTION_DOT,MEAN_MOTION_DDOT,TLE_LINE0,TLE_LINE1,TLE_LINE2,SEMIMAJOR_AXIS,PERIOD,APOGEE,PERIGEE,DECAYED
52873.0,STARLINK-4211,PAYLOAD,2023-05-05 15:32:35,15.08832486,0.0001024,53.2158,358.5604,88.6795,271.4314,0.00036891,5.587e-05,0.0,0 STARLINK-4211,1 52873U 22062AV  23125.64762837  .00005587  00000-0  36891-3 0  9998,2 52873  53.2158 358.5604 0001024  88.6795 271.4314 15.08832486 49697,6917.903,95.438,540.477,539.06,0.0
52873.0,STARLINK-4211,PAYLOAD,2023-05-05 21:54:07,15.08845178,0.0001033,53.2152,357.3702,90.2821,269.829,0.00026791,3.979e-05,0.0,0 STARLINK-4211,1 52873U 22062AV  23125.91258192  .00003979  00000-0  26791-3 0  9993,2 52873  53.2152 357.3702 0001033  90.2821 269.8290 15.08845178 49737,6917.865,95.437,540.444,539.015,0.0
52873.0,STARLINK-4211,PAYLOAD,2023-05-06 01:04:53,15.08846446,0.0001069,53.2165,356.7761,96.3589,263.7525,0.00022088,3.23e-05,0.0,0 STARLINK-4211,1 52873U 22062AV  23126.04506108  .00003230  00000-0  22088-3 0  9996,2 52873  53.2165 356.7761 0001069  96.3589 263.7525 15.08846446 49267,6917.861,95.437,540.465,538.986,0.0
52873.0,STARLINK-4211,PAYLOAD,2023-05-06 21:44:54,15.08844076,0.0001099,53.2161,352.9095,100.4087,259.7029,8.8932e-05,1.128e-05,0.0,0 STARLINK-4211,1 52873U 22062AV  23126.90618222  .00001128  00000-0  88932-4 0  9997,2 52873  53.2161 352.9095 0001099 100.4087 259.7029 15.08844076 49883,6917.868,95.437,540.493,538.973,0.0
52873.0,STARLINK-4211,PAYLOAD,2023-05-07 21:35:41,15.08835817,0.0001131,53.2164,348.451,96.2313,263.8808,1.5452e-05,-4.2e-07,0.0,0 STARLINK-4211,1 52873U 22062AV  23127.89978943 -.00000042  00000-0  15452-4 0  9997,2 52873  53.2164 348.4510 0001131  96.2313 263.8808 15.08835817 50032,6917.893,95.438,540.541,538.976,0.0
52873.0,STARLINK-4211,PAYLOAD,2023-05-08 19:51:05,15.088474,0.0001102,53.2162,344.2879,95.5386,264.5732,0.0001898,2.735e-05,0.0,0 STARLINK-4211,1 52873U 22062AV  23128.82714435  .00002735  00000-0  18980-3 0  9993,2 52873  53.2162 344.2879 0001102  95.5386 264.5732 15.08847400 50172,6917.858,95.437,540.485,538.96,0.0
52873.0,STARLINK-4211,PAYLOAD,2023-05-08 21:26:28,15.08850108,0.000108,53.216,343.9913,98.916,261.1954,0.00023051,3.384e-05,0.0,0 STARLINK-4211,1 52873U 22062AV  23128.89338263  .00003384  00000-0  23051-3 0  9997,2 52873  53.2160 343.9913 0001080  98.9160 261.1954 15.08850108 49690,6917.849,95.437,540.462,538.967,0.0
52873.0,STARLINK-4211,PAYLOAD,2023-05-09 21:17:15,15.08838137,0.0001155,53.217,339.5315,95.452,264.6604,3.784e-05,3.14e-06,0.0,0 STARLINK-4211,1 52873U 22062AV  23129.88698879  .00000314  00000-0  37840-4 0  9991,2 52873  53.2170 339.5315 0001155  95.4520 264.6604 15.08838137 49848,6917.886,95.438,540.55,538.952,0.0
52873.0,STARLINK-4211,PAYLOAD,2023-05-10 19:32:39,15.088433,0.0001169,53.216,335.3684,110.9814,249.1304,-2.0139e-05,-6.08e-06,0.0,0 STARLINK-4211,1 52873U 22062AV  23130.81434873 -.00000608  00000-0 -20139-4 0  9999,2 52873  53.2160 335.3684 0001169 110.9814 249.1304 15.08843300 49982,6917.87,95.437,540.544,538.927,0.0
52873.0,STARLINK-4211,PAYLOAD,2023-05-10 21:08:02,15.08847341,0.0001211,53.216,335.0708,117.8691,242.2424,5.8384e-06,-1.95e-06,0.0,0 STARLINK-4211,1 52873U 22062AV  23130.88058620 -.00000195  00000-0  58384-5 0  9992,2 52873  53.2160 335.0708 0001211 117.8691 242.2424 15.08847341 49990,6917.858,95.437,540.561,538.885,0.0
52873.0,STARLINK-4211,PAYLOAD,2023-05-11 19:23:27,15.08837809,0.0001214,53.2165,330.9067,68.1331,291.9791,7.6924e-05,9.37e-06,0.0,0 STARLINK-4211,1 52873U 22062AV  23131.80795497  .00000937  00000-0  76924-4 0  9997,2 52873  53.2165 330.9067 0001214  68.1331 291.9791 15.08837809 50627,6917.887,95.438,540.592,538.912,0.0
52873.0,STARLINK-4211,PAYLOAD,2023-05-12 19:14:13,15.08847126,0.0001157,53.2168,326.4454,80.8994,279.2129,9.6186e-05,1.244e-05,0.0,0 STARLINK-4211,1 52873U 22062AV  23132.80155050  .00001244  00000-0  96186-4 0  9997,2 52873  53.2168 326.4454 0001157  80.8994 279.2129 15.08847126 50281,6917.859,95.437,540.524,538.923,0.0
52873.0,STARLINK-4211,PAYLOAD,2023-05-13 00:00:22,15.08852673,0.0001155,53.2171,325.5528,81.8175,278.2948,0.00013737,1.9e-05,0.0,0 STARLINK-4211,1 52873U 22062AV  23133.00026519  .00001900  00000-0  13737-3 0  9996,2 52873  53.2171 325.5528 0001155  81.8175 278.2948 15.08852673 50806,6917.842,95.437,540.506,538.908,0.0
52873.0,STARLINK-4211,PAYLOAD,2023-05-13 19:05:01,15.08839762,0.0001207,53.2177,321.9833,91.5904,268.5226,8.4684e-05,1.06e-05,0.0,0 STARLINK-4211,1 52873U 22062AV  23133.79515518  .00001060  00000-0  84684-4 0  9991,2 52873  53.2177 321.9833 0001207  91.5904 268.5226 15.08839762 50431,6917.881,95.438,540.581,538.911,0.0
52873.0,STARLINK-4211,PAYLOAD,2023-05-14 12:34:15,15.0884786,0.0001147,53.2176,318.7137,80.2425,279.8697,-3.7603e-05,-8.86e-06,0.0,0 STARLINK-4211,1 52873U 22062AV  23134.52379491 -.00000886  00000-0 -37603-4 0  9997,2 52873  53.2176 318.7137 0001147  80.2425 279.8697 15.08847860 50544,6917.856,95.437,540.515,538.928,0.0
52873.0,STARLINK-4211,PAYLOAD,2023-05-14 18:55:48,15.08846698,0.0001158,53.2166,317.524,84.7158,275.3966,6.5186e-05,7.5e-06,0.0,0 STARLINK-4211,1 52873U 22062AV  23134.78875207  .00000750  00000-0  65186-4 0  9996,2 52873  53.2166 317.5240 0001158  84.7158 275.3966 15.08846698 50581,6917.86,95.437,540.526,538.924,0.0
52873.0,STARLINK-4211,PAYLOAD,2023-05-14 22:06:34,15.08848262,0.0001155,53.2168,316.9294,85.2427,274.8697,0.00011059,1.473e-05,0.0,0 STARLINK-4211,1 52873U 22062AV  23134.92123095  .00001473  00000-0  11059-3 0  9995,2 52873  53.2168 316.9294 0001155  85.2427 274.8697 15.08848262 51098,6917.855,95.437,540.519,538.921,0.0
52873.0,STARLINK-4211,PAYLOAD,2023-05-15 12:25:02,15.08842691,0.0001167,53.2171,314.2536,87.4127,272.6999,0.00014238,1.979e-05,0.0,0 STARLINK-4211,1 52873U 22062AV  23135.51739277  .00001979  00000-0  14238-3 0  9999,2 52873  53.2171 314.2536 0001167  87.4127 272.6999 15.08842691 51187,6917.872,95.437,540.544,538.93,0.0
52873.0,STARLINK-4211,PAYLOAD,2023-05-15 17:11:12,15.08839577,0.0001147,53.2174,313.3608,87.2277,272.8846,9.5133e-05,1.227e-05,0.0,0 STARLINK-4211,1 52873U 22062AV  23135.71611667  .00001227  00000-0  95133-4 0  9993,2 52873  53.2174 313.3608 0001147  87.2277 272.8846 15.08839577 50723,6917.882,95.438,540.54,538.953,0.0
52873.0,STARLINK-4211,PAYLOAD,2023-05-16 04:18:54,15.08844171,0.0001162,53.2165,311.2792,85.0027,275.1098,0.00012403,1.687e-05,0.0,0 STARLINK-4211,1 52873U 22062AV  23136.17979352  .00001687  00000-0  12403-3 0  9990,2 52873  53.2165 311.2792 0001162  85.0027 275.1098 15.08844171 50798,6917.868,95.437,540.536,538.929,0.0
52873.0,STARLINK-4211,PAYLOAD,2023-05-16 18:37:22,15.08837574,0.0001169,53.2164,308.6035,86.601,273.5116,3.5906e-06,-2.31e-06,0.0,0 STARLINK-4211,1 52873U 22062AV  23136.77595670 -.00000231  00000-0  35906-5 0  9993,2 52873  53.2164 308.6035 0001169  86.6010 273.5116 15.08837574 51370,6917.888,95.438,540.562,538.944,0.0
52873.0,STARLINK-4211,PAYLOAD,2023-05-17 10:31:14,15.08829513,0.0001151,53.2173,305.6293,92.4214,267.691,6.0271e-05,6.71e-06,0.0,0 STARLINK-4211,1 52873U 22062AV  23137.43836575  .00000671  00000-0  60271-4 0  9998,2 52873  53.2173 305.6293 0001151  92.4214 267.6910 15.08829513 51476,6917.912,95.438,540.574,538.981,0.0
52873.0,STARLINK-4211,PAYLOAD,2023-05-17 18:28:09,15.08840816,0.0001106,53.2175,304.143,93.2842,266.8277,8.5837e-05,1.079e-05,0.0,0 STARLINK-4211,1 52873U 22062AV  23137.76955868  .00001079  00000-0  85837-4 0  9999,2 52873  53.2175 304.1430 0001106  93.2842 266.8277 15.08840816 51523,6917.878,95.438,540.508,538.978,0.0
52873.0,STARLINK-4211,PAYLOAD,2023-05-17 21:38:55,15.08844877,0.0001131,53.2163,303.5482,96.2825,263.8296,0.00011167,1.49e-05,0.0,0 STARLINK-4211,1 52873U 22062AV  23137.90203389  .00001490  00000-0  11167-3 0  9990,2 52873  53.2163 303.5482 0001131  96.2825 263.8296 15.08844877 51059,6917.865,95.437,540.513,538.948,0.0
52873.0,STARLINK-4211,PAYLOAD,2023-05-18 04:00:28,15.0884331,0.0001059,53.2161,302.3591,98.271,261.8402,8.6161e-05,1.084e-05,0.0,0 STARLINK-4211,1 52873U 22062AV  23138.16699416  .00001084  00000-0  86161-4 0  9995,2 52873  53.2161 302.3591 0001059  98.2710 261.8402 15.08843310 51091,6917.87,95.437,540.468,539.003,0.0
52873.0,STARLINK-4211,PAYLOAD,2023-05-19 03:51:15,15.08837433,9.2e-05,53.2164,297.8982,86.015,274.0948,5.5867e-06,-1.99e-06,0.0,0 STARLINK-4211,1 52873U 22062AV  23139.16059979 -.00000199  00000-0  55867-5 0  9997,2 52873  53.2164 297.8982 0000920  86.0150 274.0948 15.08837433 51736,6917.888,95.438,540.39,539.117,0.0
52873.0,STARLINK-4211,PAYLOAD,2023-05-19 19:45:06,15.08848368,0.0001199,53.2163,294.9243,85.8431,274.2698,0.00020155,2.922e-05,0.0,0 STARLINK-4211,1 52873U 22062AV  23139.82299648  .00002922  00000-0  20155-3 0  9994,2 52873  53.2163 294.9243 0001199  85.8431 274.2698 15.08848368 51341,6917.855,95.437,540.549,538.89,0.0
52873.0,STARLINK-4211,PAYLOAD,2023-05-20 16:25:07,15.08845158,5.5e-05,53.2167,291.0587,89.206,270.8995,0.00015426,2.169e-05,0.0,0 STARLINK-4211,1 52873U 22062AV  23140.68411527  .00002169  00000-0  15426-3 0  9990,2 52873  53.2167 291.0587 0000550  89.2060 270.8995 15.08845158 51964,6917.865,95.437,540.11,539.349,0.0
52873.0,STARLINK-4211,PAYLOAD,2023-05-20 19:35:53,15.08853482,6.81e-05,53.2166,290.4628,94.8157,265.2913,0.00034912,5.275e-05,0.0,0 STARLINK-4211,1 52873U 22062AV  23140.81659008  .00005275  00000-0  34912-3 0  9995,2 52873  53.2166 290.4628 0000681  94.8157 265.2913 15.08853482 51491,6917.839,95.437,540.175,539.233,0.0
52873.0,STARLINK-4211,PAYLOAD,2023-05-21 03:32:50,15.08837838,0.0001437,53.2154,288.978,81.2098,278.9057,1.6871e-05,-1.9e-07,0.0,0 STARLINK-4211,1 52873U 22062AV  23141.14780093 -.00000019  00000-0  16871-4 0  9998,2 52873  53.2154 288.9780 0001437  81.2098 278.9057 15.08837838 52031,6917.887,95.438,540.746,538.758,0.0
